{
  "type": "FeatureCollection",
  "features": [
    {
      "type": "Feature",
      "properties": {
        "norad_id": 33747,
        "name": "FENGYUN 1C DEB",
        "group": "fengyun-1c-debris",
        "lat": 29.06795466411815,
        "lon": 77.37773696687657,
        "alt_km": 897.1636167873876,
        "timestamp": "2025-12-13T18:50:04.718462+00:00",
        "meta_object_name": "FENGYUN 1C DEB",
        "meta_object_id": "1999-025DJL",
        "meta_epoch": "2025-12-07T00:03:01.560960",
        "meta_mean_motion": 14.17338054,
        "meta_eccentricity": 0.00899301,
        "meta_inclination": 99.098,
        "meta_ra_of_asc_node": 75.547,
        "meta_arg_of_pericenter": 232.9564,
        "meta_mean_anomaly": 126.336,
        "meta_ephemeris_type": 0,
        "meta_classification_type": "U",
        "meta_norad_cat_id": 33747,
        "meta_element_set_no": 999,
        "meta_rev_at_epoch": 90051,
        "meta_bstar": 0.0039970984,
        "meta_mean_motion_dot": 8.373e-05,
        "meta_mean_motion_ddot": 0,
        "tle_line1": "1 33747U 99025DJL 25341.00210140  .00008373  00000+0  39971-2 0  9993",
        "tle_line2": "2 33747  99.0980  75.5470 0089930 232.9564 126.3360 14.17338054900511"
      },
      "geometry": {
        "type": "Point",
        "coordinates": [
          77.37773696687657,
          29.06795466411815
        ]
      }
    },
    {
      "type": "Feature",
      "properties": {
        "norad_id": 33748,
        "name": "FENGYUN 1C DEB",
        "group": "fengyun-1c-debris",
        "lat": 74.0891695716229,
        "lon": -109.06534521098845,
        "alt_km": 794.2786308804089,
        "timestamp": "2025-12-13T18:50:04.718473+00:00",
        "meta_object_name": "FENGYUN 1C DEB",
        "meta_object_id": "1999-025DJM",
        "meta_epoch": "2025-12-11T14:22:32.829312",
        "meta_mean_motion": 14.32270627,
        "meta_eccentricity": 0.00345122,
        "meta_inclination": 98.5864,
        "meta_ra_of_asc_node": 36.7637,
        "meta_arg_of_pericenter": 244.4311,
        "meta_mean_anomaly": 115.3303,
        "meta_ephemeris_type": 0,
        "meta_classification_type": "U",
        "meta_norad_cat_id": 33748,
        "meta_element_set_no": 999,
        "meta_rev_at_epoch": 91377,
        "meta_bstar": 0.0019946465,
        "meta_mean_motion_dot": 5.376e-05,
        "meta_mean_motion_ddot": 0,
        "tle_line1": "1 33748U 99025DJM 25345.59899108  .00005376  00000+0  19946-2 0  9999",
        "tle_line2": "2 33748  98.5864  36.7637 0034512 244.4311 115.3303 14.32270627913770"
      },
      "geometry": {
        "type": "Point",
        "coordinates": [
          -109.06534521098845,
          74.0891695716229
        ]
      }
    },
    {
      "type": "Feature",
      "properties": {
        "norad_id": 35088,
        "name": "FENGYUN 1C DEB",
        "group": "fengyun-1c-debris",
        "lat": 78.84446366712231,
        "lon": 7.070254137402386,
        "alt_km": 873.9993789166538,
        "timestamp": "2025-12-13T18:50:04.718483+00:00",
        "meta_object_name": "FENGYUN 1C DEB",
        "meta_object_id": "1999-025DJQ",
        "meta_epoch": "2025-12-12T18:31:51.390912",
        "meta_mean_motion": 14.1194857,
        "meta_eccentricity": 0.02676008,
        "meta_inclination": 94.6219,
        "meta_ra_of_asc_node": 162.3279,
        "meta_arg_of_pericenter": 203.3469,
        "meta_mean_anomaly": 155.5376,
        "meta_ephemeris_type": 0,
        "meta_classification_type": "U",
        "meta_norad_cat_id": 35088,
        "meta_element_set_no": 999,
        "meta_rev_at_epoch": 58800,
        "meta_bstar": 0.010610685,
        "meta_mean_motion_dot": 0.0002728,
        "meta_mean_motion_ddot": 0,
        "tle_line1": "1 35088U 99025DJQ 25346.77212258  .00027280  00000+0  10611-1 0  9991",
        "tle_line2": "2 35088  94.6219 162.3279 0267600 203.3469 155.5376 14.11948570588008"
      },
      "geometry": {
        "type": "Point",
        "coordinates": [
          7.070254137402386,
          78.84446366712231
        ]
      }
    },
    {
      "type": "Feature",
      "properties": {
        "norad_id": 35089,
        "name": "FENGYUN 1C DEB",
        "group": "fengyun-1c-debris",
        "lat": 38.002300146918294,
        "lon": -9.169263175608293,
        "alt_km": 805.1348564537693,
        "timestamp": "2025-12-13T18:50:04.718494+00:00",
        "meta_object_name": "FENGYUN 1C DEB",
        "meta_object_id": "1999-025DJR",
        "meta_epoch": "2025-12-09T11:27:18.732960",
        "meta_mean_motion": 14.19406772,
        "meta_eccentricity": 0.00291418,
        "meta_inclination": 98.5584,
        "meta_ra_of_asc_node": 353.4263,
        "meta_arg_of_pericenter": 74.1039,
        "meta_mean_anomaly": 286.3346,
        "meta_ephemeris_type": 0,
        "meta_classification_type": "U",
        "meta_norad_cat_id": 35089,
        "meta_element_set_no": 999,
        "meta_rev_at_epoch": 60829,
        "meta_bstar": 0.00082160985,
        "meta_mean_motion_dot": 1.693e-05,
        "meta_mean_motion_ddot": 0,
        "tle_line1": "1 35089U 99025DJR 25343.47730015  .00001693  00000+0  82161-3 0  9993",
        "tle_line2": "2 35089  98.5584 353.4263 0029141  74.1039 286.3346 14.19406772608291"
      },
      "geometry": {
        "type": "Point",
        "coordinates": [
          -9.169263175608293,
          38.002300146918294
        ]
      }
    },
    {
      "type": "Feature",
      "properties": {
        "norad_id": 35090,
        "name": "FENGYUN 1C DEB",
        "group": "fengyun-1c-debris",
        "lat": -8.074088781367704,
        "lon": 1.832526765355298,
        "alt_km": 799.1321808118319,
        "timestamp": "2025-12-13T18:50:04.718505+00:00",
        "meta_object_name": "FENGYUN 1C DEB",
        "meta_object_id": "1999-025DJS",
        "meta_epoch": "2025-11-28T11:16:09.482016",
        "meta_mean_motion": 14.17474979,
        "meta_eccentricity": 0.00568935,
        "meta_inclination": 99.1993,
        "meta_ra_of_asc_node": 344.6679,
        "meta_arg_of_pericenter": 56.1043,
        "meta_mean_anomaly": 304.5524,
        "meta_ephemeris_type": 0,
        "meta_classification_type": "U",
        "meta_norad_cat_id": 35090,
        "meta_element_set_no": 999,
        "meta_rev_at_epoch": 66048,
        "meta_bstar": 0.0014922384,
        "meta_mean_motion_dot": 3.028e-05,
        "meta_mean_motion_ddot": 0,
        "tle_line1": "1 35090U 99025DJS 25332.46955419  .00003028  00000+0  14922-2 0  9992",
        "tle_line2": "2 35090  99.1993 344.6679 0056893  56.1043 304.5524 14.17474979660488"
      },
      "geometry": {
        "type": "Point",
        "coordinates": [
          1.832526765355298,
          -8.074088781367704
        ]
      }
    },
    {
      "type": "Feature",
      "properties": {
        "norad_id": 35091,
        "name": "FENGYUN 1C DEB",
        "group": "fengyun-1c-debris",
        "lat": 47.79060154364903,
        "lon": -78.28181657508742,
        "alt_km": 715.2368281928693,
        "timestamp": "2025-12-13T18:50:04.718516+00:00",
        "meta_object_name": "FENGYUN 1C DEB",
        "meta_object_id": "1999-025DJT",
        "meta_epoch": "2025-12-12T06:05:07.639296",
        "meta_mean_motion": 14.6154272,
        "meta_eccentricity": 0.00484398,
        "meta_inclination": 98.5951,
        "meta_ra_of_asc_node": 90.5287,
        "meta_arg_of_pericenter": 293.3401,
        "meta_mean_anomaly": 66.2706,
        "meta_ephemeris_type": 0,
        "meta_classification_type": "U",
        "meta_norad_cat_id": 35091,
        "meta_element_set_no": 999,
        "meta_rev_at_epoch": 89920,
        "meta_bstar": 0.0041103072,
        "meta_mean_motion_dot": 0.0002075,
        "meta_mean_motion_ddot": 0,
        "tle_line1": "1 35091U 99025DJT 25346.25356064  .00020750  00000+0  41103-2 0  9998",
        "tle_line2": "2 35091  98.5951  90.5287 0048439 293.3401  66.2706 14.61542720899205"
      },
      "geometry": {
        "type": "Point",
        "coordinates": [
          -78.28181657508742,
          47.79060154364903
        ]
      }
    },
    {
      "type": "Feature",
      "properties": {
        "norad_id": 35102,
        "name": "FENGYUN 1C DEB",
        "group": "fengyun-1c-debris",
        "lat": 16.898524833687283,
        "lon": -179.37117109298558,
        "alt_km": 783.7958261114,
        "timestamp": "2025-12-13T18:50:04.718527+00:00",
        "meta_object_name": "FENGYUN 1C DEB",
        "meta_object_id": "1999-025DKE",
        "meta_epoch": "2025-12-13T06:19:02.409312",
        "meta_mean_motion": 14.28874039,
        "meta_eccentricity": 0.00607637,
        "meta_inclination": 98.4802,
        "meta_ra_of_asc_node": 357.5239,
        "meta_arg_of_pericenter": 90.2418,
        "meta_mean_anomaly": 270.5727,
        "meta_ephemeris_type": 0,
        "meta_classification_type": "U",
        "meta_norad_cat_id": 35102,
        "meta_element_set_no": 999,
        "meta_rev_at_epoch": 64920,
        "meta_bstar": 0.00073405609,
        "meta_mean_motion_dot": 1.848e-05,
        "meta_mean_motion_ddot": 0,
        "tle_line1": "1 35102U 99025DKE 25347.26322233  .00001848  00000+0  73406-3 0  9993",
        "tle_line2": "2 35102  98.4802 357.5239 0060763  90.2418 270.5727 14.28874039649201"
      },
      "geometry": {
        "type": "Point",
        "coordinates": [
          -179.37117109298558,
          16.898524833687283
        ]
      }
    }
  ]
}